COMMENT,ORIGINATOR,NORAD_CAT_ID,OBJECT_NAME,OBJECT_TYPE,CLASSIFICATION_TYPE,INTLDES,EPOCH,EPOCH_MICROSECONDS,MEAN_MOTION,ECCENTRICITY,INCLINATION,RA_OF_ASC_NODE,ARG_OF_PERICENTER,MEAN_ANOMALY,EPHEMERIS_TYPE,ELEMENT_SET_NO,REV_AT_EPOCH,BSTAR,MEAN_MOTION_DOT,MEAN_MOTION_DDOT,FILE,TLE_LINE0,TLE_LINE1,TLE_LINE2,OBJECT_ID,OBJECT_NUMBER,SEMIMAJOR_AXIS,PERIOD,APOGEE,PERIGEE,DECAYED,date
GENERATED VIA SPACETRACK.ORG API,18 SPCS,52180,SPACEBEE-134,PAYLOAD,U,22033Z,2023/2/23 4:48,11904,15.33158102,0.0007788,97.3564,137.205,212.5114,147.5649,0,999,4990,0.0014933,0.00048048,0,3827285,0 SPACEBEE-134,1 52180U 22033Z   23054.20003486  .00048048  00000-0  14933-2 0  9999,2 52180  97.3564 137.2050 0007788 212.5114 147.5649 15.33158102 49903,2022-033Z,52180,6844.534,93.924,471.729,461.068,1,2023/4/26
GENERATED VIA SPACETRACK.ORG API,18 SPCS,52180,SPACEBEE-134,PAYLOAD,U,22033Z,2023/2/23 11:03,154048,15.33184461,0.0007806,97.3561,137.4647,211.2903,148.7876,0,999,4996,0.0015983,0.00051498,0,3828819,0 SPACEBEE-134,1 52180U 22033Z   23054.46110132  .00051498  00000-0  15983-2 0  9993,2 52180  97.3561 137.4647 0007806 211.2903 148.7876 15.33184461 49965,2022-033Z,52180,6844.455,93.922,471.663,460.978,1,2023/4/27
GENERATED VIA SPACETRACK.ORG API,18 SPCS,52180,SPACEBEE-134,PAYLOAD,U,22033Z,2023/2/24 4:17,704192,15.33252043,0.0007831,97.3558,138.1792,209.0413,151.0395,0,999,5007,0.0015422,0.00049782,0,3832867,0 SPACEBEE-134,1 52180U 22033Z   23055.17901278  .00049782  00000-0  15422-2 0  9992,2 52180  97.3558 138.1792 0007831 209.0413 151.0395 15.33252043 50078,2022-033Z,52180,6844.254,93.918,471.479,460.76,1,2023/4/28
GENERATED VIA SPACETRACK.ORG API,18 SPCS,52180,SPACEBEE-134,PAYLOAD,U,22033Z,2023/2/24 16:49,999904,15.33291017,0.0007854,97.3558,138.6988,206.9883,153.0952,0,999,5015,0.0011617,0.00037466,0,3835059,0 SPACEBEE-134,1 52180U 22033Z   23055.70111111  .00037466  00000-0  11617-2 0  9998,2 52180  97.3558 138.6988 0007854 206.9883 153.0952 15.33291017 50156,2022-033Z,52180,6844.138,93.916,471.379,460.628,1,2023/4/29
GENERATED VIA SPACETRACK.ORG API,18 SPCS,52180,SPACEBEE-134,PAYLOAD,U,22033Z,2023/2/24 23:05,71040,15.33316043,0.0007846,97.3556,138.9586,205.9524,154.1326,0,999,5017,0.0012334,0.00039827,0,3834924,0 SPACEBEE-134,1 52180U 22033Z   23055.96215360  .00039827  00000-0  12334-2 0  9997,2 52180  97.3556 138.9586 0007846 205.9524 154.1326 15.33316043 50179,2022-033Z,52180,6844.064,93.914,471.299,460.559,1,2023/4/30
GENERATED VIA SPACETRACK.ORG API,18 SPCS,52180,SPACEBEE-134,PAYLOAD,U,22033Z,2023/2/25 3:47,482048,15.33331131,0.000785,97.3555,139.1535,205.1796,154.9064,0,999,5022,0.0011706,0.00037803,0,3837605,0 SPACEBEE-134,1 52180U 22033Z   23056.15793382  .00037803  00000-0  11706-2 0  9998,2 52180  97.3555 139.1535 0007850 205.1796 154.9064 15.33331131 50221,2022-033Z,52180,6844.019,93.913,471.257,460.511,1,
GENERATED VIA SPACETRACK.ORG API,18 SPCS,52180,SPACEBEE-134,PAYLOAD,U,22033Z,2023/2/25 22:35,463744,15.3339471,0.0007876,97.3553,139.933,202.2032,157.887,0,999,5034,0.0013472,0.00043639,0,3839003,0 SPACEBEE-134,1 52180U 22033Z   23056.94103546  .00043639  00000-0  13472-2 0  9998,2 52180  97.3553 139.9330 0007876 202.2032 157.8870 15.33394710 50341,2022-033Z,52180,6843.83,93.909,471.085,460.305,1,
GENERATED VIA SPACETRACK.ORG API,18 SPCS,52180,SPACEBEE-134,PAYLOAD,U,22033Z,2023/2/26 4:50,23744,15.33426064,0.0007877,97.3553,140.1928,201.379,158.7125,0,999,5036,0.0015807,0.00051318,0,3840334,0 SPACEBEE-134,1 52180U 22033Z   23057.20206046  .00051318  00000-0  15807-2 0  9994,2 52180  97.3553 140.1928 0007877 201.3790 158.7125 15.33426064 50363,2022-033Z,52180,6843.737,93.907,470.992,460.211,1,
GENERATED VIA SPACETRACK.ORG API,18 SPCS,52180,SPACEBEE-134,PAYLOAD,U,22033Z,2023/2/26 4:50,23744,15.33426064,0.0007877,97.3553,140.1928,201.379,158.7125,0,999,5038,0.0015807,0.00051318,0,3841853,0 SPACEBEE-134,1 52180U 22033Z   23057.20206046  .00051318  00000-0  15807-2 0  9994,2 52180  97.3553 140.1928 0007877 201.3790 158.7125 15.33426064 50385,2022-033Z,52180,6843.737,93.907,470.992,460.211,1,
GENERATED VIA SPACETRACK.ORG API,18 SPCS,52180,SPACEBEE-134,PAYLOAD,U,22033Z,2023/2/26 17:22,98304,15.33473058,0.0007907,97.3555,140.7125,199.6924,160.4014,0,999,5046,0.0013876,0.00045069,0,3843368,0 SPACEBEE-134,1 52180U 22033Z   23057.72409836  .00045069  00000-0  13876-2 0  9993,2 52180  97.3555 140.7125 0007907 199.6924 160.4014 15.33473058 50465,2022-033Z,52180,6843.597,93.904,470.873,460.05,1,
GENERATED VIA SPACETRACK.ORG API,18 SPCS,52180,SPACEBEE-134,PAYLOAD,U,22033Z,2023/2/27 10:36,415936,15.33567028,0.0007915,97.3555,141.4268,197.4429,162.6543,0,999,5055,0.002063,0.0006744,0,3845844,0 SPACEBEE-134,1 52180U 22033Z   23058.44186824  .00067440  00000-0  20630-2 0  9995,2 52180  97.3555 141.4268 0007915 197.4429 162.6543 15.33567028 50558,2022-033Z,52180,6843.317,93.899,470.599,459.766,1,
GENERATED VIA SPACETRACK.ORG API,18 SPCS,52180,SPACEBEE-134,PAYLOAD,U,22033Z,2023/2/27 10:36,415936,15.33567028,0.0007915,97.3555,141.4268,197.4429,162.6543,0,999,5057,0.002063,0.0006744,0,3846396,0 SPACEBEE-134,1 52180U 22033Z   23058.44186824  .00067440  00000-0  20630-2 0  9995,2 52180  97.3555 141.4268 0007915 197.4429 162.6543 15.33567028 50570,2022-033Z,52180,6843.317,93.899,470.599,459.766,1,
GENERATED VIA SPACETRACK.ORG API,18 SPCS,52180,SPACEBEE-134,PAYLOAD,U,22033Z,2023/2/28 3:49,151776,15.3369025,0.0007956,97.3558,142.1416,194.9942,165.1066,0,999,5066,0.0020422,0.00067015,0,3847286,0 SPACEBEE-134,1 52180U 22033Z   23059.15958509  .00067015  00000-0  20422-2 0  9998,2 52180  97.3558 142.1416 0007956 194.9942 165.1066 15.33690250 50665,2022-033Z,52180,6842.951,93.891,470.26,459.371,1,
GENERATED VIA SPACETRACK.ORG API,18 SPCS,52180,SPACEBEE-134,PAYLOAD,U,22033Z,2023/2/28 3:49,151776,15.3369025,0.0007956,97.3558,142.1416,194.9942,165.1066,0,999,5068,0.0020422,0.00067015,0,3847542,0 SPACEBEE-134,1 52180U 22033Z   23059.15958509  .00067015  00000-0  20422-2 0  9998,2 52180  97.3558 142.1416 0007956 194.9942 165.1066 15.33690250 50687,2022-033Z,52180,6842.951,93.891,470.26,459.371,1,
GENERATED VIA SPACETRACK.ORG API,18 SPCS,52180,SPACEBEE-134,PAYLOAD,U,22033Z,2023/2/28 17:55,206208,15.33754612,0.0007898,97.3556,142.7267,193.1043,166.9996,0,999,5077,0.001591,0.00052196,0,3847656,0 SPACEBEE-134,1 52180U 22033Z   23059.74677322  .00052196  00000-0  15910-2 0  9994,2 52180  97.3556 142.7267 0007898 193.1043 166.9996 15.33754612 50777,2022-033Z,52180,6842.759,93.887,470.029,459.22,1,
GENERATED VIA SPACETRACK.ORG API,18 SPCS,52180,SPACEBEE-134,PAYLOAD,U,22033Z,2023/2/28 17:55,206208,15.33754612,0.0007898,97.3556,142.7267,193.1043,166.9996,0,999,5075,0.001591,0.00052196,0,3847880,0 SPACEBEE-134,1 52180U 22033Z   23059.74677322  .00052196  00000-0  15910-2 0  9994,2 52180  97.3556 142.7267 0007898 193.1043 166.9996 15.33754612 50755,2022-033Z,52180,6842.759,93.887,470.029,459.22,1,
GENERATED VIA SPACETRACK.ORG API,18 SPCS,52180,SPACEBEE-134,PAYLOAD,U,22033Z,2023/3/1 11:08,272832,15.33834186,0.0007919,97.3554,143.4415,190.9125,169.1948,0,999,5088,0.0017494,0.00057585,0,3848834,0 SPACEBEE-134,1 52180U 22033Z   23060.46441288  .00057585  00000-0  17494-2 0  9991,2 52180  97.3554 143.4415 0007919 190.9125 169.1948 15.33834186 50887,2022-033Z,52180,6842.522,93.882,469.806,458.969,1,
GENERATED VIA SPACETRACK.ORG API,18 SPCS,52180,SPACEBEE-134,PAYLOAD,U,22033Z,2023/3/2 2:48,134144,15.3389381,0.0007972,97.3556,144.0908,188.978,171.1322,0,999,5096,0.001393,0.00045854,0,3849143,0 SPACEBEE-134,1 52180U 22033Z   23061.11678396  .00045854  00000-0  13930-2 0  9993,2 52180  97.3556 144.0908 0007972 188.9780 171.1322 15.33893810 50963,2022-033Z,52180,6842.345,93.879,469.665,458.755,1,
GENERATED VIA SPACETRACK.ORG API,18 SPCS,52180,SPACEBEE-134,PAYLOAD,U,22033Z,2023/3/2 4:22,494304,15.33902684,0.0007974,97.3555,144.1557,188.733,171.3775,0,999,5099,0.0014112,0.00046471,0,3849487,0 SPACEBEE-134,1 52180U 22033Z   23061.18201961  .00046471  00000-0  14112-2 0  9999,2 52180  97.3555 144.1557 0007974 188.7330 171.3775 15.33902684 50991,2022-033Z,52180,6842.319,93.878,469.64,458.728,1,
GENERATED VIA SPACETRACK.ORG API,18 SPCS,52180,SPACEBEE-134,PAYLOAD,U,22033Z,2023/3/3 5:25,533888,15.34033044,0.0007912,97.3556,145.1952,184.6301,175.487,0,999,5113,0.0021001,0.0006969,0,3850022,0 SPACEBEE-134,1 52180U 22033Z   23062.22574692  .00069690  00000-0  21001-2 0  9992,2 52180  97.3556 145.1952 0007912 184.6301 175.4870 15.34033044 51131,2022-033Z,52180,6841.931,93.87,469.209,458.383,1,
GENERATED VIA SPACETRACK.ORG API,18 SPCS,52180,SPACEBEE-134,PAYLOAD,U,22033Z,2023/3/3 5:25,533888,15.34033044,0.0007912,97.3556,145.1952,184.6301,175.487,0,999,5115,0.0021001,0.0006969,0,3850163,0 SPACEBEE-134,1 52180U 22033Z   23062.22574692  .00069690  00000-0  21001-2 0  9992,2 52180  97.3556 145.1952 0007912 184.6301 175.4870 15.34033044 51153,2022-033Z,52180,6841.931,93.87,469.209,458.383,1,
GENERATED VIA SPACETRACK.ORG API,18 SPCS,52180,SPACEBEE-134,PAYLOAD,U,22033Z,2023/3/3 16:22,947552,15.34090084,0.0007833,97.3554,145.6502,182.8416,177.2784,0,999,5122,0.0020054,0.00066636,0,3850400,0 SPACEBEE-134,1 52180U 22033Z   23062.68234893  .00066636  00000-0  20054-2 0  9992,2 52180  97.3554 145.6502 0007833 182.8416 177.2784 15.34090084 51225,2022-033Z,52180,6841.762,93.867,468.986,458.267,1,
GENERATED VIA SPACETRACK.ORG API,18 SPCS,52180,SPACEBEE-134,PAYLOAD,U,22033Z,2023/3/4 4:53,24832,15.34172232,0.0007913,97.3548,146.1689,181.1314,178.9912,0,999,5130,0.0023082,0.00077014,0,3851072,0 SPACEBEE-134,1 52180U 22033Z   23063.20415538  .00077014  00000-0  23082-2 0  9994,2 52180  97.3548 146.1689 0007913 181.1314 178.9912 15.34172232 51304,2022-033Z,52180,6841.517,93.862,468.796,457.969,1,
